SUOMI NPP               
1 37849U 11061A   26135.28249277  .00000035  00000+0  37627-4 0  9994
2 37849  98.7943  76.3863 0002805  70.3436 289.8042 14.19510020753779
YAOGAN-12               
1 37875U 11066B   26135.29049406  .00002751  00000+0  10906-3 0  9998
2 37875  97.1175 175.4116 0009331 354.3547   5.7586 15.26152574807020
BEIDOU-2 M4             
1 38251U 12018B   26134.29258150 -.00000046  00000+0  00000+0 0  9998
2 38251  55.6884 305.2340 0010931 281.8081  78.0562  1.86229693 95318
ARIRANG-3 (KOMPSAT-3)   
1 38338U 12025B   26135.32251868  .00000225  00000+0  53870-4 0  9992
2 38338  98.1159  93.3549 0004586 204.6704 155.4278 14.62175472746546
METOP-B                 
1 38771U 12049A   26135.24637149  .00000061  00000+0  47868-4 0  9998
2 38771  98.6526 187.3989 0003502  87.9849 272.1729 14.21423042708585
SJ-9A                   
1 38860U 12056A   26135.22465428  .00000723  00000+0  89584-4 0  9998
2 38860  97.6692 108.3753 0025838   9.5766 350.5936 14.85398991694694
COSMOS 2484 (RODNIK-S 6)
1 39059U 13001C   26135.30465985  .00000026  00000+0  11315-3 0  9999
2 39059  82.5021 242.3335 0027547 105.8424 254.5696 12.42938249604479
SARAL                   
1 39086U 13009A   26135.29022580  .00000044  00000+0  32068-4 0  9994
2 39086  98.5560 322.2740 0002520  48.3343 311.8056 14.32847471690892
STRAND-1                
1 39090U 13009E   26135.05506085  .00000173  00000+0  72552-4 0  9995
2 39090  98.3916 316.1065 0008063 337.9645  22.1195 14.37142674692304
BRITE-AUSTRIA           
1 39091U 13009F   26135.05371122  .00000102  00000+0  49268-4 0  9998
2 39091  98.3988 315.3111 0009805 346.0852  14.0063 14.36528164692296
GAOFEN-1                
1 39150U 13018A   26135.26361110 -.00000086  00000+0 -49951-5 0  9996
2 39150  97.9107 207.9981 0017405  17.2008 342.9788 14.76536315703387
NEE-01 PEGASO           
1 39151U 13018B   26135.17018785  .00001148  00000+0  11487-3 0  9993
2 39151  98.1181 278.2422 0011276 272.9700  87.0228 14.93488233705778
PROBA-V                 
1 39159U 13021A   26134.38237559  .00000044  00000+0  37296-4 0  9990
2 39159  98.3571 114.6617 0003255 218.7420 141.3526 14.23589551676304
ARIRANG-5 (KOMPSAT-5)   
1 39227U 13042A   26135.24438181  .00000447  00000+0  36299-4 0  9998
2 39227  97.6217 322.4079 0001947 227.3622 132.7440 15.04489092698904
GONETS-M 5              
1 39249U 13048A   26135.27221419 -.00000046  00000+0 -39992-3 0  9994
2 39249  82.4861   3.9056 0015755 287.1176  72.8178 12.42890620574795
GONETS-M 7              
1 39251U 13048C   26135.31626935 -.00000068  00000+0 -55781-3 0  9992
2 39251  82.4930   6.7828 0016600 288.3459  71.5815 12.42913295574754
FENGYUN 3C              
1 39260U 13052A   26135.25118606  .00000054  00000+0  48389-4 0  9991
2 39260  98.4964 110.6426 0015712 116.0072 244.2723 14.15746974653900
CASSIOPE                
1 39265U 13055A   26135.26290748  .00020722 -65946-6  23517-3 0  9995
2 39265  80.9128 106.6142 0300981 172.7747 187.7981 15.22668416662658
APRIZESAT 7             
1 39416U 13066A   26135.28135530  .00000882  00000+0  92888-4 0  9999
2 39416  97.7690  88.9803 0034900 322.5809  37.2980 14.91484761676322
ZACUBE-1 (TSHEPISOSAT)  
1 39417U 13066B   26134.87679473  .00002987  00000+0  23526-3 0  9993
2 39417  97.8120  97.0329 0041625   5.1274 355.0367 15.00919176675736
APRIZESAT 8             
1 39425U 13066K   26134.57732847  .00000694  00000+0  81048-4 0  9991
2 39425  97.8205  82.5207 0046968  38.0957 322.3564 14.87576414674677
