OBJECT_NAME,OBJECT_ID,EPOCH,MEAN_MOTION,ECCENTRICITY,INCLINATION,RA_OF_ASC_NODE,ARG_OF_PERICENTER,MEAN_ANOMALY,EPHEMERIS_TYPE,CLASSIFICATION_TYPE,NORAD_CAT_ID,ELEMENT_SET_NO,REV_AT_EPOCH,BSTAR,MEAN_MOTION_DOT,MEAN_MOTION_DDOT
SUOMI NPP,2011-061A,2026-05-15T06:46:47.375328,14.19510020,.00028059,98.7943,76.3863,70.3436,289.8042,0,U,37849,999,75377,.37627343E-4,.35E-6,0
YAOGAN-12,2011-066B,2026-05-15T06:58:18.686784,15.26152574,.00093313,97.1175,175.4116,354.3547,5.7586,0,U,37875,999,80702,.10905888E-3,.2751E-4,0
BEIDOU-2 M4,2012-018B,2026-05-14T07:01:19.041600,1.86229693,.00109315,55.6884,305.2340,281.8081,78.0562,0,U,38251,999,9531,0,-.46E-6,0
ARIRANG-3 (KOMPSAT-3),2012-025B,2026-05-15T07:44:25.613952,14.62175472,.00045862,98.1159,93.3549,204.6704,155.4278,0,U,38338,999,74654,.53870136E-4,.225E-5,0
METOP-B,2012-049A,2026-05-15T05:54:46.496736,14.21423042,.00035025,98.6526,187.3989,87.9849,272.1729,0,U,38771,999,70858,.4786839E-4,.61E-6,0
SJ-9A,2012-056A,2026-05-15T05:23:30.129792,14.85398991,.00258383,97.6692,108.3753,9.5766,350.5936,0,U,38860,999,69469,.89583807E-4,.723E-5,0
COSMOS 2484 (RODNIK-S 6),2013-001C,2026-05-15T07:18:42.611040,12.42938249,.00275474,82.5021,242.3335,105.8424,254.5696,0,U,39059,999,60447,.11315102E-3,.26E-6,0
SARAL,2013-009A,2026-05-15T06:57:55.509120,14.32847471,.00025206,98.5560,322.2740,48.3343,311.8056,0,U,39086,999,69089,.32068127E-4,.44E-6,0
STRAND-1,2013-009E,2026-05-15T01:19:17.257440,14.37142674,.00080637,98.3916,316.1065,337.9645,22.1195,0,U,39090,999,69230,.72551716E-4,.173E-5,0
BRITE-AUSTRIA,2013-009F,2026-05-15T01:17:20.649408,14.36528164,.00098057,98.3988,315.3111,346.0852,14.0063,0,U,39091,999,69229,.49267693E-4,.102E-5,0
GAOFEN-1,2013-018A,2026-05-15T06:19:35.999040,14.76536315,.00174053,97.9107,207.9981,17.2008,342.9788,0,U,39150,999,70338,-.4995061E-5,-.86E-6,0
NEE-01 PEGASO,2013-018B,2026-05-15T04:05:04.230240,14.93488233,.00112767,98.1181,278.2422,272.9700,87.0228,0,U,39151,999,70577,.11487101E-3,.1148E-4,0
PROBA-V,2013-021A,2026-05-14T09:10:37.250976,14.23589551,.00032557,98.3571,114.6617,218.7420,141.3526,0,U,39159,999,67630,.37295784E-4,.44E-6,0
ARIRANG-5 (KOMPSAT-5),2013-042A,2026-05-15T05:51:54.588384,15.04489092,.00019477,97.6217,322.4079,227.3622,132.7440,0,U,39227,999,69890,.36298663E-4,.447E-5,0
GONETS-M 5,2013-048A,2026-05-15T06:31:59.306016,12.42890620,.00157556,82.4861,3.9056,287.1176,72.8178,0,U,39249,999,57479,-.39992369E-3,-.46E-6,0
GONETS-M 7,2013-048C,2026-05-15T07:35:25.671840,12.42913295,.00166006,82.4930,6.7828,288.3459,71.5815,0,U,39251,999,57475,-.55780761E-3,-.68E-6,0
FENGYUN 3C,2013-052A,2026-05-15T06:01:42.475584,14.15746974,.00157121,98.4964,110.6426,116.0072,244.2723,0,U,39260,999,65390,.48388734E-4,.54E-6,0
CASSIOPE,2013-055A,2026-05-15T06:18:35.206272,15.22668416,.03009817,80.9128,106.6142,172.7747,187.7981,0,U,39265,999,66265,.23516702E-3,.20722E-3,-.659458E-6
APRIZESAT 7,2013-066A,2026-05-15T06:45:09.097920,14.91484761,.00349008,97.7690,88.9803,322.5809,37.2980,0,U,39416,999,67632,.92887984E-4,.882E-5,0
ZACUBE-1 (TSHEPISOSAT),2013-066B,2026-05-14T21:02:35.064672,15.00919176,.00416257,97.8120,97.0329,5.1274,355.0367,0,U,39417,999,67573,.2352566E-3,.2987E-4,0
APRIZESAT 8,2013-066K,2026-05-14T13:51:21.179808,14.87576414,.0046968,97.8205,82.5207,38.0957,322.3564,0,U,39425,999,67467,.81048306E-4,.694E-5,0
